OBJECT_NAME,OBJECT_ID,EPOCH,MEAN_MOTION,ECCENTRICITY,INCLINATION,RA_OF_ASC_NODE,ARG_OF_PERICENTER,MEAN_ANOMALY,EPHEMERIS_TYPE,CLASSIFICATION_TYPE,NORAD_CAT_ID,ELEMENT_SET_NO,REV_AT_EPOCH,BSTAR,MEAN_MOTION_DOT,MEAN_MOTION_DDOT
STARLINK-37922,2026-157AE,2026-07-18T20:00:01.999008,15.83797973,.0001292,53.1584,277.1605,51.3126,94.6457,0,U,69971,999,274,-.11294E-1,-.2184892E-1,0
CHUANG XIN 26 (CX-26),2026-158A,2026-07-18T15:11:57.155424,14.25123885,.0004914,49.9834,265.9089,311.3503,48.6987,0,U,69972,999,119,.56359E-4,-.27E-6,0
CZ-10B DEB,2026-158B,2026-07-18T13:33:00.639936,14.24888906,.0005712,49.9839,266.2127,322.4784,37.5730,0,U,69973,999,118,.10639E-3,.9E-6,0
CZ-10B R/B,2026-158C,2026-07-13T13:30:02.623104,14.64293949,.01979448,49.9631,286.3519,194.8878,164.6170,0,U,69974,999,48,.55130296E-4,.143E-5,0
STARLINK-38024,2026-159A,2026-07-18T20:00:01.999008,15.84806487,.000161,97.2856,38.7067,81.3560,59.6384,0,U,69975,999,243,-.86585E-2,-.1732041E-1,0
STARLINK-37993,2026-159B,2026-07-18T20:00:01.999008,15.85087492,.0001469,97.2855,38.7079,85.7848,58.2739,0,U,69976,999,243,-.84132E-2,-.1709386E-1,0
STARLINK-37995,2026-159C,2026-07-18T20:00:01.999008,15.85346444,.0001539,97.2853,38.7093,75.1880,71.9306,0,U,69977,999,243,-.81621E-2,-.1683358E-1,0
STARLINK-38057,2026-159D,2026-07-18T20:00:01.999008,15.85590703,.0001537,97.2854,38.7104,83.2039,67.0090,0,U,69978,999,243,-.7995E-2,-.1670511E-1,0
STARLINK-38063,2026-159E,2026-07-18T20:00:01.999008,15.85825230,.0001691,97.2855,38.7119,77.7401,75.5613,0,U,69979,999,243,-.7873E-2,-.1664939E-1,0
STARLINK-38093,2026-159F,2026-07-18T20:00:01.999008,15.86048411,.0001575,97.2856,38.7130,84.2230,72.1550,0,U,69980,999,243,-.77525E-2,-.1658267E-1,0
STARLINK-38050,2026-159G,2026-07-18T20:00:01.999008,15.86274996,.0001552,97.2858,38.7143,78.5471,80.7772,0,U,69981,999,243,-.75661E-2,-.16392E-1,0
STARLINK-38065,2026-159H,2026-07-18T20:00:01.999008,15.86497753,.0001519,97.2857,38.7156,86.0648,76.2260,0,U,69982,999,243,-.74787E-2,-.1638169E-1,0
STARLINK-38077,2026-159J,2026-07-18T20:00:01.999008,15.86710298,.0001507,97.2859,38.7168,86.5000,78.7062,0,U,69983,999,243,-.73361E-2,-.1625608E-1,0
STARLINK-38068,2026-159K,2026-07-18T20:00:01.999008,15.86930586,.000162,97.2859,38.7179,77.6886,90.2553,0,U,69984,999,243,-.71436E-2,-.160345E-1,0
STARLINK-38089,2026-159L,2026-07-18T20:00:01.999008,15.87135873,.0001537,97.2859,38.7192,87.2617,83.5803,0,U,69985,999,243,-.70648E-2,-.1602028E-1,0
STARLINK-38073,2026-159M,2026-07-18T20:00:01.999008,15.87343827,.0001524,97.2860,38.7203,82.8385,90.7718,0,U,69986,999,243,-.69571E-2,-.159489E-1,0
STARLINK-38099,2026-159N,2026-07-18T20:00:01.999008,15.87550587,.000156,97.2861,38.7214,78.0386,98.2481,0,U,69987,999,243,-.68277E-2,-.1583021E-1,0
STARLINK-38064,2026-159P,2026-07-18T20:00:01.999008,15.87940684,.0001515,97.2860,38.7236,86.9894,94.7131,0,U,69988,999,243,-.66026E-2,-.156341E-1,0
STARLINK-38080,2026-159Q,2026-07-18T20:00:01.999008,15.87746054,.0001568,97.2861,38.7226,78.0124,101.0199,0,U,69989,999,243,-.67231E-2,-.1575072E-1,0
STARLINK-38070,2026-159R,2026-07-18T20:00:01.999008,15.88123666,.0001485,97.2861,38.7246,84.5150,99.9020,0,U,69990,999,243,-.6484E-2,-.1518881E-1,0
STARLINK-38042,2026-159S,2026-07-18T20:00:01.999008,15.88318710,.0001554,97.2861,38.7256,80.5516,106.3366,0,U,69991,999,243,-.63549E-2,-.1505509E-1,0
STARLINK-38071,2026-159T,2026-07-18T20:00:01.999008,15.88508238,.0001505,97.2863,38.7273,85.3911,103.9896,0,U,69992,999,243,-.62347E-2,-.1493089E-1,0
STARLINK-38082,2026-159U,2026-07-18T20:00:01.999008,15.88683700,.0001418,97.2864,38.7282,81.6395,110.2358,0,U,69993,999,243,-.60738E-2,-.147083E-1,0
STARLINK-38090,2026-159V,2026-07-18T20:00:01.999008,15.88869145,.000144,97.2864,38.7293,88.6511,105.7276,0,U,69994,999,243,-.60141E-2,-.1470161E-1,0
STARLINK-38084,2026-159W,2026-07-18T20:00:01.999008,15.89038115,.0001474,97.2865,38.7305,79.3927,117.5837,0,U,69995,999,243,-.59215E-2,-.1461317E-1,0
STARLINK-38085,2026-159X,2026-07-18T20:00:01.999008,15.89213434,.0001491,97.2865,38.7317,81.4027,117.9264,0,U,69996,999,243,-.58022E-2,-.1446825E-1,0
STARLINK-38091,2026-159Y,2026-07-18T20:00:01.999008,15.89382531,.0001476,97.2867,38.7325,84.5676,117.2861,0,U,69997,999,243,-.57434E-2,-.1644024E-1,.73679E-3
STARLINK-38086,2026-159Z,2026-07-18T20:00:01.999008,15.89550193,.0001453,97.2867,38.7336,82.2240,122.0382,0,U,69998,999,243,-.56577E-2,-.1633209E-1,.72901E-3
