STARLINK-37922          
1 69971U 26157AE  26199.83335647 -.02184892  00000+0 -11294-1 0  9992
2 69971  53.1584 277.1605 0001292  51.3126  94.6457 15.83797973  2747
CHUANG XIN 26 (CX-26)   
1 69972U 26158A   26199.63330041 -.00000027  00000+0  56359-4 0  9993
2 69972  49.9834 265.9089 0004914 311.3503  48.6987 14.25123885  1197
CZ-10B DEB              
1 69973U 26158B   26199.56459074  .00000090  00000+0  10639-3 0  9993
2 69973  49.9839 266.2127 0005712 322.4784  37.5730 14.24888906  1184
CZ-10B R/B              
1 69974U 26158C   26194.56253036  .00000143  00000+0  55130-4 0  9994
2 69974  49.9631 286.3519 0197944 194.8878 164.6170 14.64293949   480
STARLINK-38024          
1 69975U 26159A   26199.83335647 -.01732041  00000+0 -86585-2 0  9998
2 69975  97.2856  38.7067 0001610  81.3560  59.6384 15.84806487  2432
STARLINK-37993          
1 69976U 26159B   26199.83335647 -.01709386  00000+0 -84132-2 0  9991
2 69976  97.2855  38.7079 0001469  85.7848  58.2739 15.85087492  2431
STARLINK-37995          
1 69977U 26159C   26199.83335647 -.01683358  00000+0 -81621-2 0  9992
2 69977  97.2853  38.7093 0001539  75.1880  71.9306 15.85346444  2430
STARLINK-38057          
1 69978U 26159D   26199.83335647 -.01670511  00000+0 -79950-2 0  9992
2 69978  97.2854  38.7104 0001537  83.2039  67.0090 15.85590703  2434
STARLINK-38063          
1 69979U 26159E   26199.83335647 -.01664939  00000+0 -78730-2 0  9995
2 69979  97.2855  38.7119 0001691  77.7401  75.5613 15.85825230  2435
STARLINK-38093          
1 69980U 26159F   26199.83335647 -.01658267  00000+0 -77525-2 0  9995
2 69980  97.2856  38.7130 0001575  84.2230  72.1550 15.86048411  2437
STARLINK-38050          
1 69981U 26159G   26199.83335647 -.01639200  00000+0 -75661-2 0  9991
2 69981  97.2858  38.7143 0001552  78.5471  80.7772 15.86274996  2432
STARLINK-38065          
1 69982U 26159H   26199.83335647 -.01638169  00000+0 -74787-2 0  9993
2 69982  97.2857  38.7156 0001519  86.0648  76.2260 15.86497753  2439
STARLINK-38077          
1 69983U 26159J   26199.83335647 -.01625608  00000+0 -73361-2 0  9995
2 69983  97.2859  38.7168 0001507  86.5000  78.7062 15.86710298  2438
STARLINK-38068          
1 69984U 26159K   26199.83335647 -.01603450  00000+0 -71436-2 0  9998
2 69984  97.2859  38.7179 0001620  77.6886  90.2553 15.86930586  2438
STARLINK-38089          
1 69985U 26159L   26199.83335647 -.01602028  00000+0 -70648-2 0  9993
2 69985  97.2859  38.7192 0001537  87.2617  83.5803 15.87135873  2430
STARLINK-38073          
1 69986U 26159M   26199.83335647 -.01594890  00000+0 -69571-2 0  9994
2 69986  97.2860  38.7203 0001524  82.8385  90.7718 15.87343827  2430
STARLINK-38099          
1 69987U 26159N   26199.83335647 -.01583021  00000+0 -68277-2 0  9991
2 69987  97.2861  38.7214 0001560  78.0386  98.2481 15.87550587  2435
STARLINK-38064          
1 69988U 26159P   26199.83335647 -.01563410  00000+0 -66026-2 0  9992
2 69988  97.2860  38.7236 0001515  86.9894  94.7131 15.87940684  2435
STARLINK-38080          
1 69989U 26159Q   26199.83335647 -.01575072  00000+0 -67231-2 0  9999
2 69989  97.2861  38.7226 0001568  78.0124 101.0199 15.87746054  2433
STARLINK-38070          
1 69990U 26159R   26199.83335647 -.01518881  00000+0 -64840-2 0  9999
2 69990  97.2861  38.7246 0001485  84.5150  99.9020 15.88123666  2433
STARLINK-38042          
1 69991U 26159S   26199.83335647 -.01505509  00000+0 -63549-2 0  9998
2 69991  97.2861  38.7256 0001554  80.5516 106.3366 15.88318710  2436
STARLINK-38071          
1 69992U 26159T   26199.83335647 -.01493089  00000+0 -62347-2 0  9993
2 69992  97.2863  38.7273 0001505  85.3911 103.9896 15.88508238  2433
STARLINK-38082          
1 69993U 26159U   26199.83335647 -.01470830  00000+0 -60738-2 0  9995
2 69993  97.2864  38.7282 0001418  81.6395 110.2358 15.88683700  2435
STARLINK-38090          
1 69994U 26159V   26199.83335647 -.01470161  00000+0 -60141-2 0  9991
2 69994  97.2864  38.7293 0001440  88.6511 105.7276 15.88869145  2437
STARLINK-38084          
1 69995U 26159W   26199.83335647 -.01461317  00000+0 -59215-2 0  9995
2 69995  97.2865  38.7305 0001474  79.3927 117.5837 15.89038115  2438
STARLINK-38085          
1 69996U 26159X   26199.83335647 -.01446825  00000+0 -58022-2 0  9998
2 69996  97.2865  38.7317 0001491  81.4027 117.9264 15.89213434  2433
STARLINK-38091          
1 69997U 26159Y   26199.83335647 -.01644024  73679-3 -57434-2 0  9992
2 69997  97.2867  38.7325 0001476  84.5676 117.2861 15.89382531  2433
STARLINK-38086          
1 69998U 26159Z   26199.83335647 -.01633209  72901-3 -56577-2 0  9990
2 69998  97.2867  38.7336 0001453  82.2240 122.0382 15.89550193  2436
